OBJECT_NAME,OBJECT_ID,EPOCH,MEAN_MOTION,ECCENTRICITY,INCLINATION,RA_OF_ASC_NODE,ARG_OF_PERICENTER,MEAN_ANOMALY,EPHEMERIS_TYPE,CLASSIFICATION_TYPE,NORAD_CAT_ID,ELEMENT_SET_NO,REV_AT_EPOCH,BSTAR,MEAN_MOTION_DOT,MEAN_MOTION_DDOT
COSMO-SKYMED 1,2007-023A,2026-06-13T20:38:21.503040,14.97084981,.000106,97.8841,356.6882,95.6941,264.4401,0,U,31598,999,2929,.2292E-3,.2583E-4,0
COSMOS 2428,2007-029A,2026-06-13T19:35:26.395008,14.12928678,.0007164,70.9370,1.5557,141.4459,218.7175,0,U,31792,999,97767,-.4455E-4,-.131E-5,0
SL-16 R/B,2007-029B,2026-06-13T20:47:03.293376,14.14853616,.0002261,70.9767,330.2101,261.1745,204.4372,0,U,31793,999,97897,.1454E-3,.233E-5,0
KORONAS-FOTON,2009-003A,2026-06-13T20:11:53.075328,15.45665122,.0011316,82.4281,175.7493,158.4804,201.6922,0,U,33504,999,96058,.27038E-3,.13109E-3,0
CZ-2C R/B,2011-030B,2026-06-13T20:45:51.145056,14.81464151,.0053299,97.8654,120.3113,38.6003,15.5015,0,U,37731,999,80433,.15885E-3,.122E-4,0
H-2A R/B,2012-025E,2026-06-13T21:05:38.394240,14.95701928,.0043861,98.4822,139.7517,0.1706,359.9520,0,U,38341,999,76259,.30933E-3,.344E-4,0
SHIJIAN-16 (SJ-16),2013-057A,2026-06-13T21:18:45.678816,14.92598953,.0016839,74.9733,2.9329,238.5368,121.4175,0,U,39358,999,68585,.41008E-4,.393E-5,0
SL-4 R/B,2014-021B,2026-06-13T10:25:33.143232,15.41884042,.00913767,51.6053,229.1564,92.2944,268.8507,0,U,39679,999,67103,.21837153E-3,.10504E-3,0
ALOS-2,2014-029A,2026-06-13T19:48:13.650336,14.79477981,.0001603,97.9216,262.0365,89.5561,270.5834,0,U,39766,999,65108,.20749E-3,.1499E-4,0
YAOGAN-29,2015-069A,2026-06-13T20:55:29.900640,14.83081356,.0002771,98.0033,193.4992,59.3891,300.7595,0,U,41038,999,57013,-.42718E-5,-.89E-6,0
ASTRO-H (HITOMI),2016-012A,2026-06-13T12:46:03.181728,15.10496033,.00097397,30.9989,97.7930,217.5160,142.4799,0,U,41337,999,56673,.14179782E-3,.2491E-4,0
HXMT (HUIYAN),2017-034A,2026-06-13T13:58:29.875008,15.18458559,.0030272,43.0128,203.1146,123.5004,236.8744,0,U,42758,999,49711,.19572E-3,.3909E-4,0
SAOCOM 1A,2018-076A,2026-06-13T19:52:19.439328,14.82148470,.0001634,97.8883,351.6262,78.9348,281.2049,0,U,43641,999,41560,.11655E-3,.876E-5,0
H-2A R/B,2018-084L,2026-06-13T15:08:49.047936,15.45028112,.002382,98.8590,42.7447,52.4165,307.9238,0,U,43682,999,42057,.44948E-3,.21353E-3,0
SAOCOM 1B,2020-059A,2026-06-13T20:37:18.009408,14.82167419,.0001478,97.8885,350.7514,82.7253,277.4128,0,U,46265,999,31299,.34975E-4,.226E-5,0
CSS (TIANHE),2021-035A,2026-06-13T20:11:53.332800,15.60672813,.0007804,41.4695,342.3609,49.8258,310.3263,0,U,48274,999,29264,.28689E-3,.24252E-3,0
COSMOS 2550,2021-056A,2026-06-13T19:53:37.690080,15.33832333,.0008546,67.1405,110.0648,267.9276,92.0900,0,U,48865,999,27820,.11539E-5,-.154E-5,0
CZ-2C R/B,2022-058K,2026-06-13T12:44:49.894656,15.61605462,.0032703,50.1836,182.5390,252.8586,106.8805,0,U,52794,999,22507,.39469E-3,.35189E-3,0
CZ-2C R/B,2022-132E,2026-06-13T14:04:04.389888,15.71113849,.0016488,97.2895,171.4506,95.2167,265.0978,0,U,54039,999,20538,.43279E-3,.54947E-3,0
GSLV R/B,2022-138AN,2026-06-13T20:13:44.929632,14.97242136,.0022387,87.3797,134.1070,154.9560,205.2763,0,U,54149,999,19831,.22351E-3,.2628E-4,0
XRISM,2023-137A,2026-06-13T21:22:52.242816,15.12439115,.0007976,31.0031,20.9529,290.9953,68.9833,0,U,57800,999,15236,.26715E-3,.486E-4,0
ACS3,2024-077B,2026-06-13T18:14:20.200128,13.93840151,.0066454,97.1680,84.3102,66.7378,294.0766,0,U,59588,999,10756,.31444E-2,.4195E-4,0
CZ-8A R/B,2025-231K,2026-06-13T10:02:46.577760,14.30153966,.01164657,50.0053,55.3493,210.7365,148.6694,0,U,66004,999,3440,.39491096E-4,-.53E-6,0
SZ-21 MODULE,2025-246C,2026-06-13T17:32:52.136736,15.76117488,.0006751,41.4731,328.8460,328.3391,31.7047,0,U,66515,999,3319,.28446E-3,.45764E-3,0
